SatCatId,ObjectName,LaunchYear,OrbitalPeriod,LaunchMass,StatusCode,Inclination,Status,UcsData,OrbitClassEstimated,LaunchSiteCountry,Owner,UseType,Purpose,LaunchVehicleClass,TLE1,TLE2,MeanMotion,Eccentricity,OrbitClass
53848,STARLINK-4780,2022,95.44,260.0,+,53.22,Active,1,LEO,USA,USA,Commercial,Communications,Falcon,1 53848U 22114AG  23275.86903246  .00000246  00000+0  33554-4 0  9990,2 53848  53.2163 323.9270 0001760  84.0634 276.0559 15.08839263 58793,15.08839263,0.000176,LEO
53849,STARLINK-4770,2022,95.44,260.0,+,53.22,Active,1,LEO,USA,USA,Commercial,Communications,Falcon,1 53849U 22114AH  23276.14505167  .00010976  00000+0  70655-3 0  9996,2 53849  53.2166 322.8070 0001711  87.1701 272.9487 15.08844293 58297,15.08844293,0.0001711,LEO
53850,STARLINK-4767,2022,95.44,260.0,+,53.22,Active,1,LEO,USA,USA,Commercial,Communications,Falcon,1 53850U 22114AJ  23276.38789765  .00008706  00000+0  56425-3 0  9999,2 53850  53.2172 321.4789 0001570  91.8012 268.3160 15.08851361 58334,15.08851361,0.000157,LEO
53851,STARLINK-4755,2022,95.44,260.0,+,53.22,Active,1,LEO,USA,USA,Commercial,Communications,Falcon,1 53851U 22114AK  23276.40263664  .00008281  00000+0  53764-3 0  9999,2 53851  53.2158 321.5682 0001603  93.6712 266.4463 15.08849208 58338,15.08849208,0.0001603,LEO
53852,STARLINK-4797,2022,95.44,260.0,+,53.22,Active,1,LEO,USA,USA,Commercial,Communications,Falcon,1 53852U 22114AL  23276.15104057  .00009578  00000+0  61896-3 0  9997,2 53852  53.2163 317.8554 0001583  83.8804 276.2369 15.08844103 58367,15.08844103,0.0001583,LEO
53853,STARLINK-4794,2022,95.44,260.0,+,53.22,Active,1,LEO,USA,USA,Commercial,Communications,Falcon,1 53853U 22114AM  23276.13031009  .00007467  00000+0  48672-3 0  9994,2 53853  53.2147 322.7162 0001627  85.6102 274.5076 15.08840573 58295,15.08840573,0.0001627,LEO
53854,STARLINK-4800,2022,95.44,260.0,+,53.22,Active,1,LEO,USA,USA,Commercial,Communications,Falcon,1 53854U 22114AN  23276.11288615 -.00000656  00000+0 -23102-4 0  9997,2 53854  53.2146 313.3304 0001674 101.0039 259.1141 15.08833784 58426,15.08833784,0.0001674,LEO
53855,STARLINK-4703,2022,95.44,260.0,+,53.22,Active,1,LEO,USA,USA,Commercial,Communications,Falcon,1 53855U 22114AP  23276.39991289  .00017791  00000+0  11325-2 0  9994,2 53855  53.2159 321.5521 0001666  84.6903 275.4279 15.08859525 58334,15.08859525,0.0001666,LEO
53856,STARLINK-4795,2022,95.44,260.0,+,53.22,Active,1,LEO,USA,USA,Commercial,Communications,Falcon,1 53856U 22114AQ  23276.42935549  .00009725  00000+0  62786-3 0  9992,2 53856  53.2158 311.7524 0001534  89.8641 270.2527 15.08862516 58476,15.08862516,0.0001534,LEO
53857,STARLINK-4809,2022,95.44,260.0,+,53.22,Active,1,LEO,USA,USA,Commercial,Communications,Falcon,1 53857U 22114AR  23276.45045249  .00006826  00000+0  44646-3 0  9999,2 53857  53.2154 321.1622 0001402  86.6582 273.4570 15.08847296 58347,15.08847296,0.0001402,LEO
53858,STARLINK-4798,2022,95.44,260.0,+,53.22,Active,1,LEO,USA,USA,Commercial,Communications,Falcon,1 53858U 22114AS  23276.10921125  .00008391  00000+0  54454-3 0  9995,2 53858  53.2160 313.3066 0001653  91.5242 268.5939 15.08846689 58424,15.08846689,0.0001653,LEO
53859,STARLINK-4790,2022,95.44,260.0,+,53.22,Active,1,LEO,USA,USA,Commercial,Communications,Falcon,1 53859U 22114AT  23276.39020540  .00014211  00000+0  90878-3 0  9996,2 53859  53.2162 316.5072 0001667  86.4422 273.6761 15.08855820 58402,15.0885582,0.0001667,LEO
53860,STARLINK-4799,2022,95.44,260.0,+,53.22,Active,1,LEO,USA,USA,Commercial,Communications,Falcon,1 53860U 22114AU  23276.36680114  .00019403  00000+0  12332-2 0  9990,2 53860  53.2155 312.0730 0001653  76.9086 283.2091 15.08858756 58463,15.08858756,0.0001653,LEO
53861,STARLINK-4781,2022,95.44,260.0,+,53.22,Active,1,LEO,USA,USA,Commercial,Communications,Falcon,1 53861U 22114AV  23276.37048520  .00012282  00000+0  78816-3 0  9999,2 53861  53.2155 312.0952 0001712  90.5094 269.6094 15.08851407 58464,15.08851407,0.0001712,LEO
53862,STARLINK-4792,2022,95.44,260.0,+,53.22,Active,1,LEO,USA,USA,Commercial,Communications,Falcon,1 53862U 22114AW  23276.15798563  .00010631  00000+0  68495-3 0  9993,2 53862  53.2159 312.9030 0001649  89.0541 271.0640 15.08844830 58437,15.0884483,0.0001649,LEO
53863,STARLINK-4788,2022,95.44,260.0,+,53.22,Active,1,LEO,USA,USA,Commercial,Communications,Falcon,1 53863U 22114AX  23276.42567208  .00019846  00000+0  12608-2 0  9995,2 53863  53.2155 311.7313 0001708  84.1298 275.9889 15.08860614 58476,15.08860614,0.0001708,LEO
53864,STARLINK-4779,2022,95.44,260.0,+,53.22,Active,1,LEO,USA,USA,Commercial,Communications,Falcon,1 53864U 22114AY  23276.38145295  .00007826  00000+0  50908-3 0  9990,2 53864  53.2149 311.4581 0001583  90.6874 269.4300 15.08850165 58473,15.08850165,0.0001583,LEO
53865,STARLINK-4785,2022,95.44,260.0,+,53.22,Active,1,LEO,USA,USA,Commercial,Communications,Falcon,1 53865U 22114AZ  23276.46979910  .00003568  00000+0  24210-3 0  9995,2 53865  53.2163 311.2946 0001544  83.8630 276.2538 15.08846460 58487,15.0884646,0.0001544,LEO
53866,STARLINK-4762,2022,95.44,260.0,+,53.22,Active,1,LEO,USA,USA,Commercial,Communications,Falcon,1 53866U 22114BA  23276.43857268  .00009346  00000+0  60431-3 0  9999,2 53866  53.2146 291.8410 0001626  91.6619 268.4560 15.08851546 58752,15.08851546,0.0001626,LEO
53867,STARLINK-4793,2022,95.44,260.0,+,53.22,Active,1,LEO,USA,USA,Commercial,Communications,Falcon,1 53867U 22114BB  23276.42658503  .00000740  00000+0  64572-4 0  9990,2 53867  53.2169 301.7512 0001613  93.5399 266.5778 15.08846849 58619,15.08846849,0.0001613,LEO
53868,STARLINK-4789,2022,95.44,260.0,+,53.22,Active,1,LEO,USA,USA,Commercial,Communications,Falcon,1 53868U 22114BC  23276.21037265 -.00000263  00000+0  15902-5 0  9999,2 53868  53.2163 292.5665 0001533  92.1686 267.9482 15.08842778 58721,15.08842778,0.0001533,LEO
53869,STARLINK-4810,2022,95.44,260.0,+,53.22,Active,1,LEO,USA,USA,Commercial,Communications,Falcon,1 53869U 22114BD  23275.79358974 -.00000288  00000+0  11018-7 0  9998,2 53869  53.2165 304.1999 0001409  83.7412 276.3741 15.08835313 59066,15.08835313,0.0001409,LEO
53870,STARLINK-4732,2022,95.44,260.0,+,53.22,Active,1,LEO,USA,USA,Commercial,Communications,Falcon,1 53870U 22114BE  23275.75037675  .00001816  00000+0  13216-3 0  9993,2 53870  53.2158 294.6527 0001551  80.2626 279.8541 15.08839116 59192,15.08839116,0.0001551,LEO
53871,STARLINK-4740,2022,95.44,260.0,+,53.22,Active,1,LEO,USA,USA,Commercial,Communications,Falcon,1 53871U 22114BF  23276.31706228  .00004251  00000+0  28499-3 0  9999,2 53871  53.2150 291.7995 0001596  94.6737 265.4438 15.08845909 58746,15.08845909,0.0001596,LEO
53876,CHUANGXIN 16B (CX-16B),2022,96.2,100.0,+,29.0,Active,1,LEO,PRC,China,Government,Technology Development,Kuaizhou,1 53876U 22102B   23276.41479475  .00010471  00000+0  87925-3 0  9993,2 53876  28.9970 277.5987 0004971 140.1707 219.9255 14.96866965 56680,14.96866965,0.0004971,LEO
53877,YUNHAI 1-03,2022,100.49,800.0,+,98.51,Active,1,LEO,PRC,China,Government,Earth Observation,Long March,1 53877U 22115A   23276.49618604  .00000543  00000+0  21404-3 0  9994,2 53877  98.5126 273.3027 0000827  77.4047 282.7230 14.33021265 54069,14.33021265,8.27e-05,LEO
53884,OBJECT A,2022,94.2,100.0,+,97.51,Active,1,LEO,PRC,China,Government,Technology  Development,Kuaizhou,1 53884U 22118A   23276.47264294  .00011331  00000+0  40740-3 0  9996,2 53884  97.5076 289.6561 0014285  35.3682 324.8502 15.28701807 56956,15.28701807,0.0014285,LEO
53885,OBJECT B,2022,94.08,100.0,+,97.51,Active,1,LEO,PRC,China,Government,Technology Development,Kuaizhou,1 53885U 22118B   23276.49518223  .00013994  00000+0  47433-3 0  9996,2 53885  97.5082 290.4287 0012148  41.5628 318.6534 15.30598564 56991,15.30598564,0.0012148,LEO
53886,STARLINK-5028,2022,95.44,260.0,+,53.22,Active,1,LEO,USA,USA,Commercial,Communications,Falcon,1 53886U 22119A   23276.49193004  .00001721  00000+0  12617-3 0  9995,2 53886  53.2176 351.6264 0001566  94.3203 265.7969 15.08839780 57175,15.0883978,0.0001566,LEO
53887,STARLINK-5029,2022,95.44,260.0,+,53.22,Active,1,LEO,USA,USA,Commercial,Communications,Falcon,1 53887U 22119B   23276.48088104  .00015043  00000+0  96089-3 0  9996,2 53887  53.2165 351.5562 0001733  75.5603 284.5581 15.08852499 57176,15.08852499,0.0001733,LEO
53888,STARLINK-5034,2022,95.44,260.0,+,53.22,Active,1,LEO,USA,USA,Commercial,Communications,Falcon,1 53888U 22119C   23276.48824312  .00002087  00000+0  14918-3 0  9991,2 53888  53.2181 351.6026 0001582  88.1354 271.9819 15.08837000 57171,15.08837,0.0001582,LEO
53889,STARLINK-5031,2022,95.44,260.0,+,53.22,Active,1,LEO,USA,USA,Commercial,Communications,Falcon,1 53889U 22119D   23276.48455832  .00029621  00000+0  18717-2 0  9992,2 53889  53.2174 351.5780 0001360  90.2764 269.8384 15.08834193 57176,15.08834193,0.000136,LEO
53890,STARLINK-5050,2022,95.44,260.0,+,53.22,Active,1,LEO,USA,USA,Commercial,Communications,Falcon,1 53890U 22119E   23276.37917618  .00018576  00000+0  11814-2 0  9995,2 53890  53.2150 316.6854 0001777  83.4714 276.6480 15.08863872 57659,15.08863872,0.0001777,LEO
53891,STARLINK-5041,2022,95.44,260.0,+,53.22,Active,1,LEO,USA,USA,Commercial,Communications,Falcon,1 53891U 22119F   23276.21223697  .00008301  00000+0  53905-3 0  9999,2 53891  53.2176 352.7250 0001811  81.3172 278.8025 15.08838442 57130,15.08838442,0.0001811,LEO
53892,STARLINK-5046,2022,95.44,260.0,+,53.22,Active,1,LEO,USA,USA,Commercial,Communications,Falcon,1 53892U 22119G   23276.19381084  .00001643  00000+0  12132-3 0  9991,2 53892  53.2176 352.6099 0001757  90.4519 269.6675 15.08837947 57134,15.08837947,0.0001757,LEO
53893,STARLINK-5052,2022,95.44,260.0,+,53.22,Active,1,LEO,USA,USA,Commercial,Communications,Falcon,1 53893U 22119H   23276.20582376  .00002917  00000+0  20132-3 0  9995,2 53893  53.2183 352.6854 0001781  80.3584 279.7609 15.08837656 57135,15.08837656,0.0001781,LEO
